AISTECHSAT 2            
1 43768U 18099L   26169.67366615  .00004612  00000+0  24724-3 0  9993
2 43768  97.4288 217.6753 0003100 302.7422  57.3512 15.15461930412503
FOX-1CLIFF (AO-95)      
1 43770U 18099N   26169.12635746  .00009390  00000+0  35966-3 0  9998
2 43770  97.4378 229.3690 0007874 354.3313   5.7835 15.26728638413363
RANGE-A                 
1 43773U 18099R   26169.36815228  .00003167  00000+0  18085-3 0  9991
2 43773  97.3959 211.9128 0009695 353.2049   6.9049 15.13397407412675
SNUSAT-2                
1 43782U 18099AA  26169.12232972  .00006171  00000+0  27427-3 0  9992
2 43782  97.4053 222.4919 0008575 294.5412  65.4930 15.21849428413172
SNUGLITE                
1 43784U 18099AC  26169.12650977  .00009450  00000+0  35712-3 0  9992
2 43784  97.3862 223.3974 0001183 282.5149  77.5957 15.27196601413463
ITASAT                  
1 43786U 18099AE  26169.40498556  .00005196  00000+0  25058-3 0  9993
2 43786  97.4024 220.8924 0011961 356.0419   4.0719 15.19069917413095
EAGLET-I                
1 43790U 18099AJ  26169.11103030  .00002855  00000+0  16543-3 0  9994
2 43790  97.4225 218.7553 0010578 351.1614   8.9430 15.12945174412478
ESEO                    
1 43792U 18099AL  26169.37768873  .00001636  00000+0  12171-3 0  9995
2 43792  97.3976 206.7147 0011179 336.0251  24.0454 15.04252425411986
THEA                    
1 43796U 18099AQ  26169.63624212  .00013735  00000+0  40575-3 0  9998
2 43796  97.4437 239.3424 0005894 275.8015  84.2556 15.35053425412916
ASTROCAST 0.1           
1 43798U 18099AS  26169.68205146  .00029105  00000+0  52655-3 0  9996
2 43798  97.4367 248.2260 0005298 199.2163 160.8889 15.49623085414662
JY1SAT (JO-97)          
1 43803U 18099AX  26169.13967896  .00014196  00000+0  43794-3 0  9998
2 43803  97.4123 231.9773 0004389 257.5077 102.5675 15.33679040413771
SUOMI-100               
1 43804U 18099AY  26169.12282499  .00010531  00000+0  38267-3 0  9995
2 43804  97.4180 229.5127 0008377 274.8695  85.1588 15.28433243413563
CENTAURI-1              
1 43809U 18099BD  26169.12990406  .00003802  00000+0  19891-3 0  9999
2 43809  97.4217 220.8293 0012996 330.4431  29.6066 15.16373436412642
GLOBAL-2                
1 43812U 18099BG  26169.60031860  .00002324  00000+0  15210-3 0  9995
2 43812  97.3550 206.0551 0007013 138.8356 221.3403 15.08677195412127
SEAHAWK-1               
1 43820U 18099BQ  26169.38477422  .00006309  00000+0  27253-3 0  9994
2 43820  97.3950 221.8520 0006661 310.6060  49.4596 15.22822998412717
SAUDISAT 5A             
1 43831U 18102A   26169.73646424  .00004350  00000+0  16140-3 0  9997
2 43831  97.3065 231.2877 0011112 124.3504 235.8789 15.28061258415916
SAUDISAT 5B             
1 43833U 18102C   26169.68957469  .00004105  00000+0  15126-3 0  9998
2 43833  97.3172 234.3141 0011771 126.6854 233.5470 15.28316861416027
ISAT                    
1 43879U 18111D   26169.56854929  .00077903  00000+0  77395-3 0  9994
2 43879  97.5881 104.8960 0001232 153.6931 206.4391 15.65507893411386
UWE-4                   
1 43880U 18111E   26169.25062241  .00024613  00000+0  50223-3 0  9991
2 43880  97.5854  97.6902 0005301 337.5186  22.5830 15.46181512410940
D-STAR ONE (SPARROW)    
1 43881U 18111F   26169.27501764  .00134065  00000+0  90291-3 0  9994
2 43881  97.6116 110.2173 0004375 112.2723 247.9005 15.74731509411542
JILIN-1 09              
1 43943U 19005B   26169.69362882  .00003673  00000+0  17111-3 0  9998
2 43943  97.4741 264.6432 0003777  91.7869 268.3798 15.20525304409371
JILIN-1 10              
1 43946U 19005E   26169.70061338  .00004549  00000+0  18114-3 0  9992
2 43946  97.4789 268.5047 0006555 272.4099  87.6389 15.25735635409543
EGYPTSAT-A (MISRSAT-A)  
1 44047U 19008A   26169.70635536  .00000727  00000+0  12276-3 0  9992
2 44047  98.0189 234.4466 0001311  96.4409 263.6948 14.72310660393466
EMISAT                  
1 44078U 19018A   26169.73840344  .00000357  00000+0  11781-3 0  9994
2 44078  98.4642 228.5308 0017768 209.8021 150.2159 14.43688535380288
JILIN-1 GAOFEN 3A       
1 44312U 19032C   26169.58424998  .00009263  00000+0  29732-3 0  9997
2 44312  44.9753 349.2475 0006397 302.5771  57.4495 15.32654245388057
WT 1B                   
1 44316U 19032G   26169.70395111  .00007023  00000+0  26888-3 0  9990
2 44316  44.9720  52.6595 0009993 256.3568 103.6201 15.27205022387314
PROX-1                  
1 44339U 19036A   26168.92751771  .00010882  00000+0  10554-2 0  9999
2 44339  23.9948 109.3054 0005742  44.3809 315.7150 14.90623480373583
NPSAT1                  
1 44340U 19036B   26169.40316458  .00003587  00000+0  49012-3 0  9990
2 44340  23.9980 209.8426 0007103 220.9828 139.0134 14.74586294372677
