OBJECT_NAME,OBJECT_ID,EPOCH,MEAN_MOTION,ECCENTRICITY,INCLINATION,RA_OF_ASC_NODE,ARG_OF_PERICENTER,MEAN_ANOMALY,EPHEMERIS_TYPE,CLASSIFICATION_TYPE,NORAD_CAT_ID,ELEMENT_SET_NO,REV_AT_EPOCH,BSTAR,MEAN_MOTION_DOT,MEAN_MOTION_DDOT
AISTECHSAT 2,2018-099L,2026-06-18T16:10:04.755360,15.15461930,.00031,97.4288,217.6753,302.7422,57.3512,0,U,43768,999,41250,.24724E-3,.4612E-4,0
FOX-1CLIFF (AO-95),2018-099N,2026-06-18T03:01:57.284544,15.26728638,.00078742,97.4378,229.3690,354.3313,5.7835,0,U,43770,999,41336,.35966179E-3,.939E-4,0
RANGE-A,2018-099R,2026-06-18T08:50:08.356992,15.13397407,.0009695,97.3959,211.9128,353.2049,6.9049,0,U,43773,999,41267,.18085E-3,.3167E-4,0
SNUSAT-2,2018-099AA,2026-06-18T02:56:09.287808,15.21849428,.00085754,97.4053,222.4919,294.5412,65.4930,0,U,43782,999,41317,.27427429E-3,.6171E-4,0
SNUGLITE,2018-099AC,2026-06-18T03:02:10.444128,15.27196601,.00011837,97.3862,223.3974,282.5149,77.5957,0,U,43784,999,41346,.35712226E-3,.945E-4,0
ITASAT,2018-099AE,2026-06-18T09:43:10.752384,15.19069917,.0011961,97.4024,220.8924,356.0419,4.0719,0,U,43786,999,41309,.25058E-3,.5196E-4,0
EAGLET-I,2018-099AJ,2026-06-18T02:39:53.017920,15.12945174,.00105781,97.4225,218.7553,351.1614,8.9430,0,U,43790,999,41247,.16542938E-3,.2855E-4,0
ESEO,2018-099AL,2026-06-18T09:03:52.306272,15.04252425,.0011179,97.3976,206.7147,336.0251,24.0454,0,U,43792,999,41198,.12171E-3,.1636E-4,0
THEA,2018-099AQ,2026-06-18T15:16:11.319168,15.35053425,.0005894,97.4437,239.3424,275.8015,84.2556,0,U,43796,999,41291,.40575E-3,.13735E-3,0
ASTROCAST 0.1,2018-099AS,2026-06-18T16:22:09.246144,15.49623085,.0005298,97.4367,248.2260,199.2163,160.8889,0,U,43798,999,41466,.52655E-3,.29105E-3,0
JY1SAT (JO-97),2018-099AX,2026-06-18T03:21:08.262144,15.33679040,.00043897,97.4123,231.9773,257.5077,102.5675,0,U,43803,999,41377,.43793924E-3,.14196E-3,0
SUOMI-100,2018-099AY,2026-06-18T02:56:52.079136,15.28433243,.00083777,97.4180,229.5127,274.8695,85.1588,0,U,43804,999,41356,.38267446E-3,.10531E-3,0
CENTAURI-1,2018-099BD,2026-06-18T03:07:03.710784,15.16373436,.0012996,97.4217,220.8293,330.4431,29.6066,0,U,43809,999,41264,.19891E-3,.3802E-4,0
GLOBAL-2,2018-099BG,2026-06-18T14:24:27.527040,15.08677195,.0007013,97.3550,206.0551,138.8356,221.3403,0,U,43812,999,41212,.1521E-3,.2324E-4,0
SEAHAWK-1,2018-099BQ,2026-06-18T09:14:04.492608,15.22822998,.0006661,97.3950,221.8520,310.6060,49.4596,0,U,43820,999,41271,.27253E-3,.6309E-4,0
SAUDISAT 5A,2018-102A,2026-06-18T17:40:30.510336,15.28061258,.0011112,97.3065,231.2877,124.3504,235.8789,0,U,43831,999,41591,.1614E-3,.435E-4,0
SAUDISAT 5B,2018-102C,2026-06-18T16:32:59.253216,15.28316861,.0011771,97.3172,234.3141,126.6854,233.5470,0,U,43833,999,41602,.15126E-3,.4105E-4,0
ISAT,2018-111D,2026-06-18T13:38:42.658656,15.65507893,.0001232,97.5881,104.8960,153.6931,206.4391,0,U,43879,999,41138,.77395E-3,.77903E-3,0
UWE-4,2018-111E,2026-06-18T06:00:53.776224,15.46181512,.0005301,97.5854,97.6902,337.5186,22.5830,0,U,43880,999,41094,.50223E-3,.24613E-3,0
D-STAR ONE (SPARROW),2018-111F,2026-06-18T06:36:01.524096,15.74731509,.0004375,97.6116,110.2173,112.2723,247.9005,0,U,43881,999,41154,.90291E-3,.134065E-2,0
JILIN-1 09,2019-005B,2026-06-18T16:38:49.530048,15.20525304,.0003777,97.4741,264.6432,91.7869,268.3798,0,U,43943,999,40937,.17111E-3,.3673E-4,0
JILIN-1 10,2019-005E,2026-06-18T16:48:52.996032,15.25735635,.0006555,97.4789,268.5047,272.4099,87.6389,0,U,43946,999,40954,.18114E-3,.4549E-4,0
EGYPTSAT-A (MISRSAT-A),2019-008A,2026-06-18T16:57:09.103104,14.72310660,.0001311,98.0189,234.4466,96.4409,263.6948,0,U,44047,999,39346,.12276E-3,.727E-5,0
EMISAT,2019-018A,2026-06-18T17:43:18.057216,14.43688535,.0017768,98.4642,228.5308,209.8021,150.2159,0,U,44078,999,38028,.11781E-3,.357E-5,0
JILIN-1 GAOFEN 3A,2019-032C,2026-06-18T14:01:19.198272,15.32654245,.0006397,44.9753,349.2475,302.5771,57.4495,0,U,44312,999,38805,.29732E-3,.9263E-4,0
WT 1B,2019-032G,2026-06-18T16:53:41.375904,15.27205022,.0009993,44.9720,52.6595,256.3568,103.6201,0,U,44316,999,38731,.26888E-3,.7023E-4,0
PROX-1,2019-036A,2026-06-17T22:15:37.530144,14.90623480,.00057424,23.9948,109.3054,44.3809,315.7150,0,U,44339,999,37358,.10553694E-2,.10882E-3,0
NPSAT1,2019-036B,2026-06-18T09:40:33.419712,14.74586294,.0007103,23.9980,209.8426,220.9828,139.0134,0,U,44340,999,37267,.49012E-3,.3587E-4,0
